STARLINK-30460          
1 57870U 23144G   26068.07899087  .00051864  00000+0  19032-2 0  9991
2 57870  43.0032 288.6845 0003778 246.9964 113.0490 15.27189830137550
TEVEL2-8                
1 63239U 25052AF  26068.66815442  .00019130  00000+0  69304-3 0  9993
2 63239  97.4055 324.2923 0008031 124.9191 235.2804 15.28392908 54807
